1 43548U 98067NW  20358.54873977  .07367411  12353-4  71823-3 0  9993
2 43548  51.6133  23.4318 0001982  43.8993 316.2190 16.37524600140249